TRANSIT 16 [?]          
1 02807U 67048A   22211.02354941  .00000074  00000+0  98519-4 0  9994
2 02807  89.6524  35.0198 0022289  78.8752  94.3916 13.50317894716512
TRANSIT 17 [?]          
1 02965U 67092A   22211.48694106  .00000084  00000+0  10815-3 0  9991
2 02965  89.2408 120.1355 0046257 208.7121 325.5960 13.53030344704453
TRANSIT 18 [?]          
1 03133U 68012A   22211.20337306  .00000075  00000+0  99159-4 0  9997
2 03133  90.0054 271.6140 0076718 136.3805 284.6272 13.51157105402866
NNSS 19 [?]             
1 04507U 70067A   22211.37382570  .00000081  00000+0  10413-3 0  9999
2 04507  89.9201 239.0083 0170233 259.7231  98.4689 13.50831677555951
NNSS O-20 [?]           
1 06909U 73081A   22211.47874336  .00000109  00000+0  10114-3 0  9992
2 06909  89.8188 276.6444 0157143 167.3521 193.1657 13.70685743634905
TRANSAT [?]             
1 10457U 77106A   22211.50681558  .00000061  00000+0  80453-4 0  9994
2 10457  89.6836 121.1372 0026213 138.9912  34.3095 13.48682139201465
NOVA I [?]              
1 12458U 81044A   22211.50970775  .00000047  00000+0  91807-4 0  9994
2 12458  89.8886 107.2177 0012481 259.3750 274.3802 13.23066646989033
NOVA 3 [?]              
1 15362U 84110A   22211.15856615  .00000020  00000+0  26975-4 0  9990
2 15362  90.0957  67.3857 0033317 122.6614 358.5166 13.22835545824156
OSCAR 30 [?]            
1 15935U 85066A   22211.41985264  .00000052  00000+0  81021-4 0  9997
2 15935  90.1756  78.6681 0167740 317.8207 217.3497 13.35759207800139
OSCAR 24 [?]            
1 15936U 85066B   22211.54323774  .00000041  00000+0  61065-4 0  9998
2 15936  90.1702  70.6315 0168370 323.2011  61.5617 13.35619435802077
POLAR BEAR [?]          
1 17070U 86088A   22211.35224638  .00000059  00000+0  50119-4 0  9999
2 17070  89.5612 235.6377 0037333 232.2055 138.6610 13.74872944790571
OSCAR 27 [?]            
1 18361U 87080A   22211.45515092  .00000049  00000+0  65562-4 0  9991
2 18361  90.3283  35.6596 0105367 149.4489 211.2853 13.44567490710093
OSCAR 29 [?]            
1 18362U 87080B   22211.31517965  .00000079  00000+0  11663-3 0  9993
2 18362  90.3295  35.9866 0106381 170.1070   4.6989 13.44153569709656
OSCAR 23 [?]            
1 19070U 88033A   22211.27753319  .00000038  00000+0  62361-4 0  9996
2 19070  90.3347 338.1286 0189879   5.2210  16.3395 13.27524105659139
OSCAR 32 [?]            
1 19071U 88033B   22211.34108505  .00000039  00000+0  63889-4 0  9993
2 19071  90.3348 338.2170 0187742 352.9483  33.3660 13.27703748659243
NOVA 11 [?]             
1 19223U 88052A   22211.38411209  .00000056  00000+0  11237-3 0  9993
2 19223  89.9729  80.7743 0030865 163.8401   9.8516 13.22747069646687
OSCAR 25 [?]            
1 19419U 88074A   22211.42672130  .00000044  00000+0  59722-4 0  9990
2 19419  90.0037  17.9048 0097177 157.3902 231.2260 13.42298447661207
OSCAR 31 [?]            
1 19420U 88074B   22211.44081292  .00000079  00000+0  11969-3 0  9995
2 19420  90.0048  18.0851 0095527 151.5353 238.3987 13.42307844661316
